GLOBALSTAR M068         
1 32266U 07048D   26003.32217701  .00000003  00000+0  58955-3 0  9999
2 32266  51.9898  52.1704 0001136 195.4919 244.7119 12.62837532842842
GLOBALSTAR M079         
1 37188U 10054A   26003.05459836 -.00000062  00000+0  23545-3 0  9998
2 37188  52.0029 251.3604 0001015  53.6452  85.9346 12.62269605701697
GLOBALSTAR M074         
1 37189U 10054B   26003.40471646 -.00000053  00000+0  28200-3 0  9994
2 37189  52.0006 249.5862 0001047  72.9573  97.9424 12.62264983702348
GLOBALSTAR M076         
1 37190U 10054C   26003.43122529 -.00000063  00000+0  22546-3 0  9990
2 37190  52.0025 249.6957 0001170  66.5007 104.0694 12.62268827702064
GLOBALSTAR M077         
1 37191U 10054D   26003.13924258 -.00000030  00000+0  88282-3 0  9990
2 37191  51.9951 238.5190 0001588  60.1338 109.8007 11.68177057701853
GLOBALSTAR M075         
1 37192U 10054E   25358.21427079 -.00000088  00000+0  85706-4 0  9993
2 37192  52.0022 322.9423 0000480 109.7567 352.3949 12.62261317699849
GLOBALSTAR M073         
1 37193U 10054F   26003.28608615 -.00000077  00000+0  14851-3 0  9996
2 37193  52.0035 206.2550 0001199  73.5327  96.5867 12.62268781703102
GLOBALSTAR M083         
1 37739U 11033A   26003.42760524 -.00000100  00000+0  23583-4 0  9994
2 37739  51.9841 154.2761 0000967  88.7553 306.6707 12.62266431672145
GLOBALSTAR M088         
1 37740U 11033B   26003.39645054 -.00000081  00000+0  12715-3 0  9994
2 37740  52.0231  60.3996 0000477 134.2468 239.0036 12.62271302667687
GLOBALSTAR M091         
1 37741U 11033C   26003.52253850 -.00000094  00000+0  56313-4 0  9996
2 37741  52.0019  23.2261 0000107 105.0497  60.5680 12.62268363668487
GLOBALSTAR M085         
1 37742U 11033D   26003.23806135 -.00000092  00000+0  63054-4 0  9993
2 37742  52.0150 335.2400 0000379  18.8770 354.0138 12.62267619668966
GLOBALSTAR M081         
1 37743U 11033E   25351.59018587 -.00000087  00000+0  92331-4 0  9998
2 37743  51.9980  28.5496 0000222  94.7932  71.3857 12.62270971667009
GLOBALSTAR M089         
1 37744U 11033F   26003.17352608 -.00000067  00000+0  20571-3 0  9997
2 37744  51.9945 292.2511 0000860  74.7277  65.6490 12.62263154669946
GLOBALSTAR M084         
1 38040U 11080A   26003.39838028 -.00000108  00000+0 -21602-4 0  9992
2 38040  51.9996 158.9588 0001290 102.1610 279.7101 12.62267176647951
GLOBALSTAR M080         
1 38041U 11080B   26003.45153829 -.00000094  00000+0  54391-4 0  9993
2 38041  52.0042 160.4580 0000528 121.9949 271.3805 12.62265676648080
GLOBALSTAR M082         
1 38042U 11080C   26003.47687394 -.00000114  00000+0 -59528-4 0  9996
2 38042  52.0070 115.8641 0000531 128.1833 310.0893 12.62266454648790
GLOBALSTAR M092         
1 38043U 11080D   26003.51616689 -.00000080  00000+0  13341-3 0  9994
2 38043  52.0061 206.1337 0001033  84.6040 292.0637 12.62269148647259
GLOBALSTAR M090         
1 38044U 11080E   26003.50382934 -.00000090  00000+0  79488-4 0  9993
2 38044  52.0117 109.6848 0000642 107.8252 331.8323 12.62265755648912
GLOBALSTAR M086         
1 38045U 11080F   26003.44814778 -.00000093  00000+0  60107-4 0  9994
2 38045  51.9895 110.0528 0001516  69.1421   8.3516 12.62281833648852
GLOBALSTAR M097         
1 39072U 13005A   26003.45947418 -.00000088  00000+0  89890-4 0  9997
2 39072  52.0071  24.7809 0000324  72.2386 287.8516 12.62267856596108
GLOBALSTAR M093         
1 39073U 13005B   26003.43333441 -.00000089  00000+0  82590-4 0  9992
2 39073  52.0133  18.1458 0000379  25.6287 334.4599 12.62271383596051
GLOBALSTAR M094         
1 39074U 13005C   26003.19571603 -.00000082  00000+0  12023-3 0  9996
2 39074  51.9975 293.1521 0000759  38.4313 321.6608 12.62265554597631
GLOBALSTAR M096         
1 39075U 13005D   26003.36708314 -.00000103  00000+0  49323-5 0  9996
2 39075  52.0102 341.2985 0000432  23.1869 336.9017 12.62269614596576
GLOBALSTAR M078         
1 39076U 13005E   26003.42022300 -.00000086  00000+0  97215-4 0  9990
2 39076  51.9885  65.3759 0000564 239.0033 121.0778 12.62271226595201
GLOBALSTAR M095         
1 39077U 13005F   26003.44655230 -.00000075  00000+0  16243-3 0  9996
2 39077  52.0098  62.6660 0000010 108.6780 251.4088 12.62267600595064
GLOBALSTAR M087         
1 52888U 22064A   26003.22211364 -.00000081  00000+0  12976-3 0  9994
2 52888  51.9972 204.6820 0000979  71.0075 289.0897 12.62262291170300
